HUMSAT-D                
1 39433U 13066T   23117.48818645  .00008702  00000+0  72670-3 0  9997
2 39433  97.4544 118.5996 0024307 260.9636  98.8836 14.98538726513345
VELOX-PII               
1 39438U 13066Y   23117.43722658  .00002625  00000+0  33474-3 0  9992
2 39438  97.7376  72.5846 0067854 152.3559 208.1288 14.80703369508564
FIRST-MOVE              
1 39439U 13066Z   23117.42905760  .00009090  00000+0  94472-3 0  9997
2 39439  97.6772  84.4797 0059444  85.5258 275.2748 14.88795470509761
CUBEBUG-2 (LO-74)       
1 39440U 13066AA  23117.43664492  .00002584  00000+0  33973-3 0  9994
2 39440  97.7686  67.8729 0075375 191.0332 168.9231 14.79088137507853
NEE-02 KRYSAOR          
1 39441U 13066AB  23116.60155159  .00002216  00000+0  30492-3 0  9993
2 39441  97.7794  63.9757 0077613 210.1824 149.4904 14.77215915506234
FUNCUBE-1 (AO-73)       
1 39444U 13066AE  23116.63111363  .00004568  00000+0  51225-3 0  9997
2 39444  97.6678  82.6383 0055502  83.1110 277.6416 14.86162392507984
HINCUBE                 
1 39445U 13066AF  23116.45857090  .00004998  00000+0  56317-3 0  9996
2 39445  97.6696  82.2481 0055763  86.1616 274.5973 14.85906954507896
UWE-3                   
1 39446U 13066AG  23116.70792888  .00003033  00000+0  37716-3 0  9999
2 39446  97.7307  73.3675 0066897 146.0335 214.5189 14.81683372506802
AIST-1 (RS-41)          
1 39492U 13078C   23117.04960972  .00002240  00000+0  23193-3 0  9995
2 39492  82.4160 296.3753 0020098 143.0821 217.1785 14.89499375506442
SPROUT                  
1 39770U 14029E   23117.57260904  .00030410  00000+0  24237-2 0  9996
2 39770  97.9693 243.4280 0008427 121.0609 239.2002 15.00249423484569
UNISAT-6                
1 40012U 14033C   23116.89821138  .00003134  00000+0  44608-3 0  9996
2 40012  97.6712 293.4951 0055075 221.6974 138.0033 14.76487770476205
BUGSAT-1 (TITA)         
1 40014U 14033E   23117.23764374  .00006100  00000+0  50301-3 0  9998
2 40014  98.1426 133.9278 0029602  78.8933 281.5614 14.99085592483106
DUCHIFAT-1              
1 40021U 14033M   23116.70675078  .00007904  00000+0  68769-3 0  9999
2 40021  98.0539  79.0542 0013630  86.7210 273.5570 14.97164149481487
NANOSATC-BR1            
1 40024U 14033Q   23116.60452355  .00005838  00000+0  53470-3 0  9999
2 40024  98.0236  70.4770 0012770  93.4296 266.8385 14.95274777480705
QB50P1                  
1 40025U 14033R   23117.08816855  .00004371  00000+0  42108-3 0  9999
2 40025  97.9934  62.9670 0013106 101.1106 259.1587 14.93415069481029
DTUSAT-2                
1 40030U 14033W   23116.40279697  .00003879  00000+0  38207-3 0  9994
2 40030  97.9647  56.3078 0012701 100.4515 259.8136 14.92604051480274
QB50P2                  
1 40032U 14033Y   23116.31165652  .00004767  00000+0  46810-3 0  9997
2 40032  97.9644  56.2332 0012802 102.1343 258.1311 14.92604397480231
