[{"OBJECT_NAME":"HUMSAT-D","OBJECT_ID":"2013-066T","EPOCH":"2023-04-27T11:42:59.309280","MEAN_MOTION":14.98538726,"ECCENTRICITY":0.0024307,"INCLINATION":97.4544,"RA_OF_ASC_NODE":118.5996,"ARG_OF_PERICENTER":260.9636,"MEAN_ANOMALY":98.8836,"EPHEMERIS_TYPE":0,"CLASSIFICATION_TYPE":"U","NORAD_CAT_ID":39433,"ELEMENT_SET_NO":999,"REV_AT_EPOCH":51334,"BSTAR":0.0007267,"MEAN_MOTION_DOT":8.702e-5,"MEAN_MOTION_DDOT":0},{"OBJECT_NAME":"VELOX-PII","OBJECT_ID":"2013-066Y","EPOCH":"2023-04-27T10:29:36.376512","MEAN_MOTION":14.80703369,"ECCENTRICITY":0.0067854,"INCLINATION":97.7376,"RA_OF_ASC_NODE":72.5846,"ARG_OF_PERICENTER":152.3559,"MEAN_ANOMALY":208.1288,"EPHEMERIS_TYPE":0,"CLASSIFICATION_TYPE":"U","NORAD_CAT_ID":39438,"ELEMENT_SET_NO":999,"REV_AT_EPOCH":50856,"BSTAR":0.00033474,"MEAN_MOTION_DOT":2.625e-5,"MEAN_MOTION_DDOT":0},{"OBJECT_NAME":"FIRST-MOVE","OBJECT_ID":"2013-066Z","EPOCH":"2023-04-27T10:17:50.576640","MEAN_MOTION":14.8879547,"ECCENTRICITY":0.0059444,"INCLINATION":97.6772,"RA_OF_ASC_NODE":84.4797,"ARG_OF_PERICENTER":85.5258,"MEAN_ANOMALY":275.2748,"EPHEMERIS_TYPE":0,"CLASSIFICATION_TYPE":"U","NORAD_CAT_ID":39439,"ELEMENT_SET_NO":999,"REV_AT_EPOCH":50976,"BSTAR":0.00094472,"MEAN_MOTION_DOT":9.09e-5,"MEAN_MOTION_DDOT":0},{"OBJECT_NAME":"CUBEBUG-2 (LO-74)","OBJECT_ID":"2013-066AA","EPOCH":"2023-04-27T10:28:46.121088","MEAN_MOTION":14.79088137,"ECCENTRICITY":0.0075375,"INCLINATION":97.7686,"RA_OF_ASC_NODE":67.8729,"ARG_OF_PERICENTER":191.0332,"MEAN_ANOMALY":168.9231,"EPHEMERIS_TYPE":0,"CLASSIFICATION_TYPE":"U","NORAD_CAT_ID":39440,"ELEMENT_SET_NO":999,"REV_AT_EPOCH":50785,"BSTAR":0.00033973,"MEAN_MOTION_DOT":2.584e-5,"MEAN_MOTION_DDOT":0},{"OBJECT_NAME":"NEE-02 KRYSAOR","OBJECT_ID":"2013-066AB","EPOCH":"2023-04-26T14:26:14.057376","MEAN_MOTION":14.77215915,"ECCENTRICITY":0.0077613,"INCLINATION":97.7794,"RA_OF_ASC_NODE":63.9757,"ARG_OF_PERICENTER":210.1824,"MEAN_ANOMALY":149.4904,"EPHEMERIS_TYPE":0,"CLASSIFICATION_TYPE":"U","NORAD_CAT_ID":39441,"ELEMENT_SET_NO":999,"REV_AT_EPOCH":50623,"BSTAR":0.00030492,"MEAN_MOTION_DOT":2.216e-5,"MEAN_MOTION_DDOT":0},{"OBJECT_NAME":"FUNCUBE-1 (AO-73)","OBJECT_ID":"2013-066AE","EPOCH":"2023-04-26T15:08:48.217632","MEAN_MOTION":14.86162392,"ECCENTRICITY":0.0055502,"INCLINATION":97.6678,"RA_OF_ASC_NODE":82.6383,"ARG_OF_PERICENTER":83.111,"MEAN_ANOMALY":277.6416,"EPHEMERIS_TYPE":0,"CLASSIFICATION_TYPE":"U","NORAD_CAT_ID":39444,"ELEMENT_SET_NO":999,"REV_AT_EPOCH":50798,"BSTAR":0.00051225,"MEAN_MOTION_DOT":4.568e-5,"MEAN_MOTION_DDOT":0},{"OBJECT_NAME":"HINCUBE","OBJECT_ID":"2013-066AF","EPOCH":"2023-04-26T11:00:20.525760","MEAN_MOTION":14.85906954,"ECCENTRICITY":0.0055763,"INCLINATION":97.6696,"RA_OF_ASC_NODE":82.2481,"ARG_OF_PERICENTER":86.1616,"MEAN_ANOMALY":274.5973,"EPHEMERIS_TYPE":0,"CLASSIFICATION_TYPE":"U","NORAD_CAT_ID":39445,"ELEMENT_SET_NO":999,"REV_AT_EPOCH":50789,"BSTAR":0.00056317,"MEAN_MOTION_DOT":4.998e-5,"MEAN_MOTION_DDOT":0},{"OBJECT_NAME":"UWE-3","OBJECT_ID":"2013-066AG","EPOCH":"2023-04-26T16:59:25.055232","MEAN_MOTION":14.81683372,"ECCENTRICITY":0.0066897,"INCLINATION":97.7307,"RA_OF_ASC_NODE":73.3675,"ARG_OF_PERICENTER":146.0335,"MEAN_ANOMALY":214.5189,"EPHEMERIS_TYPE":0,"CLASSIFICATION_TYPE":"U","NORAD_CAT_ID":39446,"ELEMENT_SET_NO":999,"REV_AT_EPOCH":50680,"BSTAR":0.00037716,"MEAN_MOTION_DOT":3.033e-5,"MEAN_MOTION_DDOT":0},{"OBJECT_NAME":"AIST-1 (RS-41)","OBJECT_ID":"2013-078C","EPOCH":"2023-04-27T01:11:26.279808","MEAN_MOTION":14.89499375,"ECCENTRICITY":0.0020098,"INCLINATION":82.416,"RA_OF_ASC_NODE":296.3753,"ARG_OF_PERICENTER":143.0821,"MEAN_ANOMALY":217.1785,"EPHEMERIS_TYPE":0,"CLASSIFICATION_TYPE":"U","NORAD_CAT_ID":39492,"ELEMENT_SET_NO":999,"REV_AT_EPOCH":50644,"BSTAR":0.00023193,"MEAN_MOTION_DOT":2.24e-5,"MEAN_MOTION_DDOT":0},{"OBJECT_NAME":"SPROUT","OBJECT_ID":"2014-029E","EPOCH":"2023-04-27T13:44:33.421056","MEAN_MOTION":15.00249423,"ECCENTRICITY":0.0008427,"INCLINATION":97.9693,"RA_OF_ASC_NODE":243.428,"ARG_OF_PERICENTER":121.0609,"MEAN_ANOMALY":239.2002,"EPHEMERIS_TYPE":0,"CLASSIFICATION_TYPE":"U","NORAD_CAT_ID":39770,"ELEMENT_SET_NO":999,"REV_AT_EPOCH":48456,"BSTAR":0.0024237,"MEAN_MOTION_DOT":0.0003041,"MEAN_MOTION_DDOT":0},{"OBJECT_NAME":"UNISAT-6","OBJECT_ID":"2014-033C","EPOCH":"2023-04-26T21:33:25.463232","MEAN_MOTION":14.7648777,"ECCENTRICITY":0.0055075,"INCLINATION":97.6712,"RA_OF_ASC_NODE":293.4951,"ARG_OF_PERICENTER":221.6974,"MEAN_ANOMALY":138.0033,"EPHEMERIS_TYPE":0,"CLASSIFICATION_TYPE":"U","NORAD_CAT_ID":40012,"ELEMENT_SET_NO":999,"REV_AT_EPOCH":47620,"BSTAR":0.00044608,"MEAN_MOTION_DOT":3.134e-5,"MEAN_MOTION_DDOT":0},{"OBJECT_NAME":"BUGSAT-1 (TITA)","OBJECT_ID":"2014-033E","EPOCH":"2023-04-27T05:42:12.419136","MEAN_MOTION":14.99085592,"ECCENTRICITY":0.0029602,"INCLINATION":98.1426,"RA_OF_ASC_NODE":133.9278,"ARG_OF_PERICENTER":78.8933,"MEAN_ANOMALY":281.5614,"EPHEMERIS_TYPE":0,"CLASSIFICATION_TYPE":"U","NORAD_CAT_ID":40014,"ELEMENT_SET_NO":999,"REV_AT_EPOCH":48310,"BSTAR":0.00050301,"MEAN_MOTION_DOT":6.1e-5,"MEAN_MOTION_DDOT":0},{"OBJECT_NAME":"DUCHIFAT-1","OBJECT_ID":"2014-033M","EPOCH":"2023-04-26T16:57:43.267392","MEAN_MOTION":14.97164149,"ECCENTRICITY":0.001363,"INCLINATION":98.0539,"RA_OF_ASC_NODE":79.0542,"ARG_OF_PERICENTER":86.721,"MEAN_ANOMALY":273.557,"EPHEMERIS_TYPE":0,"CLASSIFICATION_TYPE":"U","NORAD_CAT_ID":40021,"ELEMENT_SET_NO":999,"REV_AT_EPOCH":48148,"BSTAR":0.00068769,"MEAN_MOTION_DOT":7.904e-5,"MEAN_MOTION_DDOT":0},{"OBJECT_NAME":"NANOSATC-BR1","OBJECT_ID":"2014-033Q","EPOCH":"2023-04-26T14:30:30.834720","MEAN_MOTION":14.95274777,"ECCENTRICITY":0.001277,"INCLINATION":98.0236,"RA_OF_ASC_NODE":70.477,"ARG_OF_PERICENTER":93.4296,"MEAN_ANOMALY":266.8385,"EPHEMERIS_TYPE":0,"CLASSIFICATION_TYPE":"U","NORAD_CAT_ID":40024,"ELEMENT_SET_NO":999,"REV_AT_EPOCH":48070,"BSTAR":0.0005347,"MEAN_MOTION_DOT":5.838e-5,"MEAN_MOTION_DDOT":0},{"OBJECT_NAME":"QB50P1","OBJECT_ID":"2014-033R","EPOCH":"2023-04-27T02:06:57.762720","MEAN_MOTION":14.93415069,"ECCENTRICITY":0.0013106,"INCLINATION":97.9934,"RA_OF_ASC_NODE":62.967,"ARG_OF_PERICENTER":101.1106,"MEAN_ANOMALY":259.1587,"EPHEMERIS_TYPE":0,"CLASSIFICATION_TYPE":"U","NORAD_CAT_ID":40025,"ELEMENT_SET_NO":999,"REV_AT_EPOCH":48102,"BSTAR":0.00042108,"MEAN_MOTION_DOT":4.371e-5,"MEAN_MOTION_DDOT":0},{"OBJECT_NAME":"DTUSAT-2","OBJECT_ID":"2014-033W","EPOCH":"2023-04-26T09:40:01.658208","MEAN_MOTION":14.92604051,"ECCENTRICITY":0.0012701,"INCLINATION":97.9647,"RA_OF_ASC_NODE":56.3078,"ARG_OF_PERICENTER":100.4515,"MEAN_ANOMALY":259.8136,"EPHEMERIS_TYPE":0,"CLASSIFICATION_TYPE":"U","NORAD_CAT_ID":40030,"ELEMENT_SET_NO":999,"REV_AT_EPOCH":48027,"BSTAR":0.00038207,"MEAN_MOTION_DOT":3.879e-5,"MEAN_MOTION_DDOT":0},{"OBJECT_NAME":"QB50P2","OBJECT_ID":"2014-033Y","EPOCH":"2023-04-26T07:28:47.123328","MEAN_MOTION":14.92604397,"ECCENTRICITY":0.0012802,"INCLINATION":97.9644,"RA_OF_ASC_NODE":56.2332,"ARG_OF_PERICENTER":102.1343,"MEAN_ANOMALY":258.1311,"EPHEMERIS_TYPE":0,"CLASSIFICATION_TYPE":"U","NORAD_CAT_ID":40032,"ELEMENT_SET_NO":999,"REV_AT_EPOCH":48023,"BSTAR":0.0004681,"MEAN_MOTION_DOT":4.767e-5,"MEAN_MOTION_DDOT":0}]
